NIMIQ 2                 
1 27632U 02062A   26182.18169632 -.00000065  00000+0  00000+0 0  9995
2 27632   9.4765  56.7483 0005719  39.3969 139.3215  1.00272155 44327
ANIK F2                 
1 28378U 04027A   26181.99223567 -.00000042  00000+0  00000+0 0  9997
2 28378   3.3212  79.2710 0004238  18.6274  67.2377  1.00272505 41405
ANIK F1R                
1 28868U 05036A   26182.18169632 -.00000068  00000+0  00000+0 0  9994
2 28868   4.3466  76.4110 0004377  12.1318 148.8054  1.00272123 46595
ANIK F3                 
1 31102U 07009A   26182.21086374  .00000009  00000+0  00000+0 0  9990
2 31102   1.2320  83.6989 0002893  14.2732 138.4950  1.00271238 46702
NIMIQ 4                 
1 33373U 08044A   26182.14034337  .00000000  00000+0  00000+0 0  9997
2 33373   0.0372  59.3302 0001857  44.8624 143.5738  1.00267368 65122
TELSTAR 11N             
1 34111U 09009A   26182.10072933 -.00000240  00000+0  00000+0 0  9997
2 34111   0.0189  27.5783 0002750  73.2124 177.0656  1.00270135 46387
TERRESTAR-1             
1 35496U 09035A   26182.06351494 -.00000049  00000+0  00000+0 0  9997
2 35496   5.1845  48.7904 0002622  42.8452  99.3332  1.00271456 62273
NIMIQ 5                 
1 35873U 09050A   26182.14242433 -.00000246  00000+0  00000+0 0  9993
2 35873   0.0291 281.1013 0003018 170.6468 166.0228  1.00270914 61488
SKYTERRA 1              
1 37218U 10061A   26182.15044918 -.00000111  00000+0  00000+0 0  9992
2 37218   5.1534  50.8301 0002390  35.7534 145.4836  1.00270795 57339
TELSTAR 14R             
1 37602U 11021A   26182.00180911 -.00000269  00000+0  00000+0 0  9998
2 37602   0.0516  81.5666 0002333 353.7215 141.4369  1.00271854 55973
NIMIQ 6                 
1 38342U 12026A   26182.18783536 -.00000163  00000+0  00000+0 0  9990
2 38342   0.0434 276.8237 0002932 184.2926 154.6450  1.00272724 50551
ANIK G1                 
1 39127U 13014A   26182.13557669 -.00000064  00000+0  00000+0 0  9991
2 39127   0.0176 342.5226 0001969 118.6656 119.5048  1.00272022 48398
TELSTAR 12V             
1 41036U 15068A   26182.15385558  .00000000  00000+0  00000+0 0  9991
2 41036   0.0267  37.0342 0002568  60.2706 222.3110  1.00269624 38767
VIASAT-2                
1 42740U 17029A   26180.57460944 -.00000254  00000+0  00000+0 0  9992
2 42740   0.0183 302.2304 0000500 140.7256 331.6830  1.00273030 33326
LEO 1 (LEO VANTAGE 1)   
1 43113U 18004C   26181.81525462  .00005380  00000+0  36982-3 0  9992
2 43113  99.2432 101.8832 0350595  37.7797 324.7467 14.67910622439482
TELSTAR 19V             
1 43562U 18059A   26182.00180911 -.00000269  00000+0  00000+0 0  9998
2 43562   0.0150 114.2649 0003108   5.0492  97.3966  1.00270859 29280
TELSTAR 18V             
1 43611U 18069A   26181.97026080 -.00000283  00000+0  00000+0 0  9991
2 43611   0.0175 302.5029 0002216 152.1071 311.7084  1.00273522 28779
AMOS-17                 
1 44479U 19050A   26181.94633670  .00000120  00000+0  00000+0 0  9990
2 44479   0.0190 336.1794 0002349 152.7366 147.7759  1.00273803 25327
